OBJECT_NAME,OBJECT_ID,EPOCH,MEAN_MOTION,ECCENTRICITY,INCLINATION,RA_OF_ASC_NODE,ARG_OF_PERICENTER,MEAN_ANOMALY,EPHEMERIS_TYPE,CLASSIFICATION_TYPE,NORAD_CAT_ID,ELEMENT_SET_NO,REV_AT_EPOCH,BSTAR,MEAN_MOTION_DOT,MEAN_MOTION_DDOT
STARLINK-36996,2026-041AA,2026-06-07T05:46:21.529344,15.34421513,.0002547,53.1590,351.4531,253.1780,106.8944,0,U,68064,999,1513,.66054E-3,.22023E-3,0
STARLINK-36836,2026-041AB,2026-06-07T06:20:57.655680,15.30222496,.0000327,53.1613,353.7211,204.8619,155.2366,0,U,68065,999,1510,.8016E-3,.23474E-3,0
STARLINK-36976,2026-041AC,2026-06-07T05:58:29.940960,15.34433712,.0000835,53.1601,351.5057,54.1132,305.9948,0,U,68066,999,1513,.1133E-2,.38139E-3,0
STARLINK-36929,2026-041AD,2026-06-05T20:26:31.168032,15.34427723,.00012054,53.1594,358.4423,67.4716,292.6414,0,U,68067,999,1491,.11115927E-2,.37401E-3,0
STARLINK-36990,2026-041AE,2026-06-06T20:09:15.979392,15.34410775,.00015335,53.1590,355.3441,84.5817,275.5360,0,U,68068,999,1504,.96137369E-3,.32256E-3,0
STARLINK-36766,2026-042A,2026-06-07T03:50:37.825728,15.34415324,.0002489,53.1584,122.4292,92.1869,267.9419,0,U,68069,999,1601,.80934E-3,.27081E-3,0
STARLINK-36823,2026-042B,2026-06-07T03:10:24.970080,15.34374507,.000127,53.1594,120.0759,95.4616,264.6531,0,U,68070,999,1604,.64779E-3,.21556E-3,0
STARLINK-36970,2026-042C,2026-06-07T05:06:14.821056,15.34390622,.0001328,53.1591,122.0418,98.9874,261.1279,0,U,68071,999,1602,.60155E-3,.19996E-3,0
STARLINK-36972,2026-042D,2026-06-07T04:17:45.970656,15.34413032,.0001611,53.1592,121.8282,97.0158,263.1028,0,U,68072,999,1602,.85479E-3,.28627E-3,0
STARLINK-37074,2026-042E,2026-06-07T04:32:54.923712,15.34413660,.0002001,53.1608,121.8910,93.0130,267.1102,0,U,68073,999,1602,.11517E-2,.38753E-3,0
STARLINK-37045,2026-042F,2026-06-07T05:12:18.426816,15.34398823,.0001161,53.1598,122.0836,98.3045,261.8089,0,U,68074,999,1602,.70143E-3,.23396E-3,0
STARLINK-37026,2026-042G,2026-06-07T05:21:23.728320,15.34397533,.0001149,53.1596,122.1179,80.7734,279.3399,0,U,68075,999,1602,.96716E-3,.3244E-3,0
STARLINK-37023,2026-042H,2026-06-07T05:00:10.802304,15.34406272,.00013,53.1595,122.0191,95.2564,264.8587,0,U,68076,999,1602,.42829E-3,.14124E-3,0
STARLINK-37036,2026-042J,2026-06-07T03:58:53.696928,15.34383523,.0000959,53.1612,120.3166,100.0447,260.0664,0,U,68077,999,1604,.10511E-2,.35285E-3,0
STARLINK-36973,2026-042K,2026-06-07T04:29:53.020608,15.34413563,.0000901,53.1561,121.8797,99.7968,260.3136,0,U,68078,999,1602,.7726E-3,.25828E-3,0
STARLINK-37063,2026-042L,2026-06-07T04:51:05.677056,15.34412548,.0002038,53.1577,121.9703,96.0139,264.1096,0,U,68079,999,1602,.10793E-2,.36281E-3,0
STARLINK-37051,2026-042M,2026-06-07T03:46:46.966656,15.34424807,.0003023,53.1593,120.2454,91.0262,269.1087,0,U,68080,999,1604,.10081E-2,.33869E-3,0
STARLINK-37066,2026-042N,2026-06-07T04:11:01.639392,15.34418794,.0001462,53.1586,120.3729,95.3397,264.7772,0,U,68081,999,1604,.10244E-2,.34415E-3,0
STARLINK-37054,2026-042P,2026-06-07T03:02:08.956320,15.34396681,.0001748,53.1587,122.1973,87.6972,272.4231,0,U,68082,999,1601,.67508E-3,.22498E-3,0
STARLINK-37065,2026-042Q,2026-06-07T05:15:20.132064,15.34397468,.0001147,53.1597,122.0901,99.9607,260.1525,0,U,68083,999,1602,.85382E-3,.28579E-3,0
STARLINK-37037,2026-042R,2026-06-07T04:23:49.440768,15.34401608,.0000935,53.1576,121.8580,94.8960,265.2149,0,U,68084,999,1602,.91698E-3,.30734E-3,0
STARLINK-37068,2026-042S,2026-06-07T03:52:50.726208,15.34424756,.0003235,53.1590,120.2785,98.4034,261.7335,0,U,68085,999,1604,.98895E-3,.33214E-3,0
STARLINK-37067,2026-042T,2026-06-07T04:04:57.739008,15.34430076,.0001458,53.1594,120.3299,81.7682,278.3486,0,U,68086,999,1604,.10935E-2,.36786E-3,0
STARLINK-37062,2026-042U,2026-06-07T04:08:40.663968,15.34416970,.0001416,53.1597,121.7792,79.8852,280.2311,0,U,68087,999,1602,.1127E-2,.37915E-3,0
STARLINK-37059,2026-042V,2026-06-07T09:44:36.146688,15.34366872,.0001874,53.1585,121.1221,54.4220,305.6957,0,U,68088,999,1605,.28926E-3,.9399E-4,0
STARLINK-37004,2026-042W,2026-06-07T03:56:41.337312,15.34431525,.0003552,53.1598,122.4541,93.2303,266.9106,0,U,68089,999,1601,.95909E-3,.32203E-3,0
STARLINK-36320,2026-042X,2026-06-07T04:14:44.085696,15.34424298,.0000674,53.1594,121.8208,77.9042,282.2036,0,U,68090,999,1602,.11893E-2,.40053E-3,0
STARLINK-36324,2026-042Y,2026-06-07T04:02:37.682016,15.34431769,.0001421,53.1595,121.7616,92.5742,267.5423,0,U,68091,999,1602,.88652E-3,.29725E-3,0
STARLINK-36896,2026-042Z,2026-06-07T04:48:04.153248,15.34405299,.0001813,53.1587,121.9619,89.4415,270.6796,0,U,68092,999,1601,.12038E-2,.40522E-3,0
STARLINK-36251,2026-042AA,2026-06-07T11:00:12.937248,15.34403177,.0001091,53.1578,120.7302,94.8000,265.3127,0,U,68093,999,1605,.78101E-3,.26106E-3,0
