STARLINK-36996          
1 68064U 26041AA  26158.24052696  .00022023  00000+0  66054-3 0  9995
2 68064  53.1590 351.4531 0002547 253.1780 106.8944 15.34421513 15136
STARLINK-36836          
1 68065U 26041AB  26158.26455620  .00023474  00000+0  80160-3 0  9997
2 68065  53.1613 353.7211 0000327 204.8619 155.2366 15.30222496 15109
STARLINK-36976          
1 68066U 26041AC  26158.24895765  .00038139  00000+0  11330-2 0  9990
2 68066  53.1601 351.5057 0000835  54.1132 305.9948 15.34433712 15133
STARLINK-36929          
1 68067U 26041AD  26156.85174963  .00037401  00000+0  11116-2 0  9999
2 68067  53.1594 358.4423 0001205  67.4716 292.6414 15.34427723 14915
STARLINK-36990          
1 68068U 26041AE  26157.83976828  .00032256  00000+0  96137-3 0  9999
2 68068  53.1590 355.3441 0001533  84.5817 275.5360 15.34410775 15048
STARLINK-36766          
1 68069U 26042A   26158.16016002  .00027081  00000+0  80934-3 0  9995
2 68069  53.1584 122.4292 0002489  92.1869 267.9419 15.34415324 16015
STARLINK-36823          
1 68070U 26042B   26158.13223345  .00021556  00000+0  64779-3 0  9994
2 68070  53.1594 120.0759 0001270  95.4616 264.6531 15.34374507 16042
STARLINK-36970          
1 68071U 26042C   26158.21267154  .00019996  00000+0  60155-3 0  9999
2 68071  53.1591 122.0418 0001328  98.9874 261.1279 15.34390622 16027
STARLINK-36972          
1 68072U 26042D   26158.17900429  .00028627  00000+0  85479-3 0  9991
2 68072  53.1592 121.8282 0001611  97.0158 263.1028 15.34413032 16020
STARLINK-37074          
1 68073U 26042E   26158.18952458  .00038753  00000+0  11517-2 0  9994
2 68073  53.1608 121.8910 0002001  93.0130 267.1102 15.34413660 16021
STARLINK-37045          
1 68074U 26042F   26158.21687994  .00023396  00000+0  70143-3 0  9997
2 68074  53.1598 122.0836 0001161  98.3045 261.8089 15.34398823 16027
STARLINK-37026          
1 68075U 26042G   26158.22319130  .00032440  00000+0  96716-3 0  9997
2 68075  53.1596 122.1179 0001149  80.7734 279.3399 15.34397533 16028
STARLINK-37023          
1 68076U 26042H   26158.20845836  .00014124  00000+0  42829-3 0  9998
2 68076  53.1595 122.0191 0001300  95.2564 264.8587 15.34406272 16021
STARLINK-37036          
1 68077U 26042J   26158.16589927  .00035285  00000+0  10511-2 0  9993
2 68077  53.1612 120.3166 0000959 100.0447 260.0664 15.34383523 16048
STARLINK-36973          
1 68078U 26042K   26158.18741922  .00025828  00000+0  77260-3 0  9998
2 68078  53.1561 121.8797 0000901  99.7968 260.3136 15.34413563 16020
STARLINK-37063          
1 68079U 26042L   26158.20214904  .00036281  00000+0  10793-2 0  9999
2 68079  53.1577 121.9703 0002038  96.0139 264.1096 15.34412548 16028
STARLINK-37051          
1 68080U 26042M   26158.15748804  .00033869  00000+0  10081-2 0  9995
2 68080  53.1593 120.2454 0003023  91.0262 269.1087 15.34424807 16048
STARLINK-37066          
1 68081U 26042N   26158.17432453  .00034415  00000+0  10244-2 0  9997
2 68081  53.1586 120.3729 0001462  95.3397 264.7772 15.34418794 16048
STARLINK-37054          
1 68082U 26042P   26158.12649255  .00022498  00000+0  67508-3 0  9997
2 68082  53.1587 122.1973 0001748  87.6972 272.4231 15.34396681 16014
STARLINK-37065          
1 68083U 26042Q   26158.21898301  .00028579  00000+0  85382-3 0  9992
2 68083  53.1597 122.0901 0001147  99.9607 260.1525 15.34397468 16025
STARLINK-37037          
1 68084U 26042R   26158.18321112  .00030734  00000+0  91698-3 0  9993
2 68084  53.1576 121.8580 0000935  94.8960 265.2149 15.34401608 16023
STARLINK-37068          
1 68085U 26042S   26158.16169822  .00033214  00000+0  98895-3 0  9992
2 68085  53.1590 120.2785 0003235  98.4034 261.7335 15.34424756 16047
STARLINK-37067          
1 68086U 26042T   26158.17011272  .00036786  00000+0  10935-2 0  9994
2 68086  53.1594 120.3299 0001458  81.7682 278.3486 15.34430076 16045
STARLINK-37062          
1 68087U 26042U   26158.17269287  .00037915  00000+0  11270-2 0  9994
2 68087  53.1597 121.7792 0001416  79.8852 280.2311 15.34416970 16027
STARLINK-37059          
1 68088U 26042V   26158.40597392  .00009399  00000+0  28926-3 0  9994
2 68088  53.1585 121.1221 0001874  54.4220 305.6957 15.34366872 16058
STARLINK-37004          
1 68089U 26042W   26158.16436733  .00032203  00000+0  95909-3 0  9994
2 68089  53.1598 122.4541 0003552  93.2303 266.9106 15.34431525 16019
STARLINK-36320          
1 68090U 26042X   26158.17689914  .00040053  00000+0  11893-2 0  9999
2 68090  53.1594 121.8208 0000674  77.9042 282.2036 15.34424298 16024
STARLINK-36324          
1 68091U 26042Y   26158.16849169  .00029725  00000+0  88652-3 0  9990
2 68091  53.1595 121.7616 0001421  92.5742 267.5423 15.34431769 16026
STARLINK-36896          
1 68092U 26042Z   26158.20004807  .00040522  00000+0  12038-2 0  9990
2 68092  53.1587 121.9619 0001813  89.4415 270.6796 15.34405299 16016
STARLINK-36251          
1 68093U 26042AA  26158.45848307  .00026106  00000+0  78101-3 0  9995
2 68093  53.1578 120.7302 0001091  94.8000 265.3127 15.34403177 16057
